format  = 'OEF2.0'       ! file format
rectype = 'ML'           ! record type (1L/ML)
refsys  = ECLM J2000     ! default reference system
END_OF_HEADER
101955
! Keplerian elements: a, e, i, long. node, arg. peric., mean anomaly
 KEP   1.1260024307699046E+00  2.0369734821159022E-01   6.0327993139309   1.9689543863370  66.4072909073523  2.6746912278252705E+02
 MJD     61000.000000000 TDT
 MAG  20.604  0.150
! Non-gravitational parameters: model used, number of model parameters, dimension, list of solve for parameters to be currently determined
 LSP   1  2    7    2
! Vector of dynamical parameters
! Area-to-mass ratio [m^2/t], Yarkovsky parameter [1E-10 au/day^2]
 NGR   0.00000000000000E+00 -4.60477568857430E-04
! PERIHELION   8.9663872154227009E-01
! APHELION   1.3553661399975385E+00
! ANODE  -5.4318184427004151E-03
! DNODE   1.7730867955119567E-01
! MOID   3.0317989249866377E-03
! PERIOD   4.3642278757229178E+02
! PHA T
! VINFTY     6.3630401904355
! U_PAR 0.0
! ORB_TYPE Apollo
! SNR A2   191.42
! da/dt [1E-4 au/My] -1.9225699E+01  +/-   1.0043560E-01
! RMS    2.09078E-10   2.02693E-08   2.57382E-06   3.60029E-06   5.27945E-06   2.90660E-06   2.40555E-06
 COV   4.371345983137345E-20  2.529047415118483E-18 -3.879321652580176E-16
 COV  -2.527695801326984E-17  7.373762984851814E-16 -4.950402341534751E-16
 COV   4.386708951008622E-16  4.108429915285208E-16 -5.103246768565831E-14
 COV   3.594349383670744E-14  6.669892676144226E-14 -5.413615365229044E-14
 COV   6.502994909911777E-15  6.624539726369188E-12 -4.089131533763258E-12
 COV  -8.800938829048528E-12  7.078927102167170E-12 -1.891203713179279E-12
 COV   1.296211077308370E-11 -7.095669168527637E-12 -1.628684660051082E-12
 COV  -3.039220196558275E-12  2.787258513349911E-11 -1.289720699041203E-11
 COV   5.839991223944190E-12  8.448322544157908E-12 -3.160116510600827E-12
 COV   5.786663525846885E-12
 COR   1.000000000000000E+00  5.967761241756876E-01 -7.208922312822758E-01
 COR  -3.357989641130601E-02  6.680253726072306E-01 -8.146061108143268E-01
 COR   8.722020737947984E-01  1.000000000000000E+00 -9.782070160202941E-01
 COR   4.925433774597464E-01  6.232930424660925E-01 -9.188914521514968E-01
 COR   1.333709846377427E-01  1.000000000000000E+00 -4.412811353605071E-01
 COR  -6.476830366913439E-01  9.462466228635074E-01 -3.054543696517125E-01
 COR   1.000000000000000E+00 -3.733076320969310E-01 -1.556373754381142E-01
 COR  -3.509216697054889E-01  1.000000000000000E+00 -8.404691975640894E-01
 COR   4.598428667713831E-01  1.000000000000000E+00 -4.519638886881330E-01
 COR   1.000000000000000E+00
